ONEWEB-0500             
1 54118U 22138F   25262.77348074 -.00000042  00000+0 -13688-3 0  9998
2 54118  87.9292 358.7370 0001860 101.7612 258.3729 13.19723999141166
ONEWEB-0501             
1 54119U 22138G   25263.03093429  .00000051  00000+0  94751-4 0  9999
2 54119  87.9291 358.6785 0001381  97.8244 262.3046 13.19724227141172
ONEWEB-0502             
1 54120U 22138H   25263.01671715  .00000035  00000+0  56281-4 0  9997
2 54120  87.9289 358.6642 0001583  94.6574 265.4739 13.19725488141193
ONEWEB-0503             
1 54121U 22138J   25262.77820981  .00000039  00000+0  63871-4 0  9998
2 54121  87.9292 358.7153 0001881  90.9530 269.1818 13.19724184141155
ONEWEB-0504             
1 54122U 22138K   25262.76557661  .00000007  00000+0 -14957-4 0  9997
2 54122  87.9293 358.7347 0001584  93.5165 266.6149 13.19725104141168
ONEWEB-0505             
1 54123U 22138L   25262.76241835  .00000047  00000+0  85516-4 0  9993
2 54123  87.9306 358.7216 0001498 159.1089 201.0106 13.19724092141146
ONEWEB-0506             
1 54124U 22138M   25262.96459426  .00000074  00000+0  15224-3 0  9991
2 54124  87.9290 358.6811 0001615  98.1404 261.9912 13.19726090141165
ONEWEB-0507             
1 54125U 22138N   25263.06094446  .00000071  00000+0  14598-3 0  9991
2 54125  87.9280 358.7111 0001609 101.5986 258.5328 13.19725836141223
ONEWEB-0508             
1 54126U 22138P   25262.83033377  .00000049  00000+0  91098-4 0  9998
2 54126  87.9284 358.7423 0001440 105.4164 254.7128 13.19725306141170
ONEWEB-0509             
1 54127U 22138Q   25263.03252771  .00000010  00000+0 -61177-5 0  9998
2 54127  87.9290 358.6660 0001637  98.5859 261.5459 13.19725581141179
ONEWEB-0510             
1 54128U 22138R   25263.13429642  .00000074  00000+0  14939-3 0  9994
2 54128  87.9263 328.2825 0002464  99.0307 261.1105 13.20770827143631
ONEWEB-0511             
1 54129U 22138S   25263.02935657  .00000039  00000+0  65812-4 0  9999
2 54129  87.9290 358.6713 0001829  90.5134 269.6209 13.19726918141202
ONEWEB-0512             
1 54130U 22138T   25263.02146859  .00000045  00000+0  80299-4 0  9992
2 54130  87.9274 358.7110 0001386  94.1358 265.9933 13.19725526141177
ONEWEB-0513             
1 54131U 22138U   25262.76134003 -.00003330  00000+0 -82793-2 0  9992
2 54131  87.9279 358.7251 0001229  80.4300 279.6972 13.20331535141035
ONEWEB-0514             
1 54132U 22138V   25262.80981424  .00000005  00000+0 -19873-4 0  9991
2 54132  87.9292 358.7278 0001924  99.4561 260.6789 13.19724655141168
ONEWEB-0515             
1 54133U 22138W   25263.12165866  .00000136  00000+0  30234-3 0  9999
2 54133  87.9272 328.2644 0002558 114.9642 245.1757 13.20772147143653
ONEWEB-0516             
1 54134U 22138X   25263.01198742  .00000023  00000+0  25552-4 0  9990
2 54134  87.9276 358.7178 0001691 103.5787 256.5534 13.19724071141196
