[{"OBJECT_NAME":"ONEWEB-0500","OBJECT_ID":"2022-138F","EPOCH":"2025-09-19T18:33:48.735936","MEAN_MOTION":13.19723999,"ECCENTRICITY":0.00018604,"INCLINATION":87.9292,"RA_OF_ASC_NODE":358.737,"ARG_OF_PERICENTER":101.7612,"MEAN_ANOMALY":258.3729,"EPHEMERIS_TYPE":0,"CLASSIFICATION_TYPE":"U","NORAD_CAT_ID":54118,"ELEMENT_SET_NO":999,"REV_AT_EPOCH":14116,"BSTAR":-0.00013687878,"MEAN_MOTION_DOT":-4.2e-7,"MEAN_MOTION_DDOT":0},{"OBJECT_NAME":"ONEWEB-0501","OBJECT_ID":"2022-138G","EPOCH":"2025-09-20T00:44:32.722656","MEAN_MOTION":13.19724227,"ECCENTRICITY":0.00013817,"INCLINATION":87.9291,"RA_OF_ASC_NODE":358.6785,"ARG_OF_PERICENTER":97.8244,"MEAN_ANOMALY":262.3046,"EPHEMERIS_TYPE":0,"CLASSIFICATION_TYPE":"U","NORAD_CAT_ID":54119,"ELEMENT_SET_NO":999,"REV_AT_EPOCH":14117,"BSTAR":9.4750766e-5,"MEAN_MOTION_DOT":5.1e-7,"MEAN_MOTION_DDOT":0},{"OBJECT_NAME":"ONEWEB-0502","OBJECT_ID":"2022-138H","EPOCH":"2025-09-20T00:24:04.361760","MEAN_MOTION":13.19725488,"ECCENTRICITY":0.00015835,"INCLINATION":87.9289,"RA_OF_ASC_NODE":358.6642,"ARG_OF_PERICENTER":94.6574,"MEAN_ANOMALY":265.4739,"EPHEMERIS_TYPE":0,"CLASSIFICATION_TYPE":"U","NORAD_CAT_ID":54120,"ELEMENT_SET_NO":999,"REV_AT_EPOCH":14119,"BSTAR":5.6281183e-5,"MEAN_MOTION_DOT":3.5e-7,"MEAN_MOTION_DDOT":0},{"OBJECT_NAME":"ONEWEB-0503","OBJECT_ID":"2022-138J","EPOCH":"2025-09-19T18:40:37.327584","MEAN_MOTION":13.19724184,"ECCENTRICITY":0.00018817,"INCLINATION":87.9292,"RA_OF_ASC_NODE":358.7153,"ARG_OF_PERICENTER":90.953,"MEAN_ANOMALY":269.1818,"EPHEMERIS_TYPE":0,"CLASSIFICATION_TYPE":"U","NORAD_CAT_ID":54121,"ELEMENT_SET_NO":999,"REV_AT_EPOCH":14115,"BSTAR":6.3871454e-5,"MEAN_MOTION_DOT":3.9e-7,"MEAN_MOTION_DDOT":0},{"OBJECT_NAME":"ONEWEB-0504","OBJECT_ID":"2022-138K","EPOCH":"2025-09-19T18:22:25.819104","MEAN_MOTION":13.19725104,"ECCENTRICITY":0.00015842,"INCLINATION":87.9293,"RA_OF_ASC_NODE":358.7347,"ARG_OF_PERICENTER":93.5165,"MEAN_ANOMALY":266.6149,"EPHEMERIS_TYPE":0,"CLASSIFICATION_TYPE":"U","NORAD_CAT_ID":54122,"ELEMENT_SET_NO":999,"REV_AT_EPOCH":14116,"BSTAR":-1.4957119e-5,"MEAN_MOTION_DOT":7.0e-8,"MEAN_MOTION_DDOT":0},{"OBJECT_NAME":"ONEWEB-0505","OBJECT_ID":"2022-138L","EPOCH":"2025-09-19T18:17:52.945440","MEAN_MOTION":13.19724092,"ECCENTRICITY":0.00014981,"INCLINATION":87.9306,"RA_OF_ASC_NODE":358.7216,"ARG_OF_PERICENTER":159.1089,"MEAN_ANOMALY":201.0106,"EPHEMERIS_TYPE":0,"CLASSIFICATION_TYPE":"U","NORAD_CAT_ID":54123,"ELEMENT_SET_NO":999,"REV_AT_EPOCH":14114,"BSTAR":8.5515548e-5,"MEAN_MOTION_DOT":4.7e-7,"MEAN_MOTION_DDOT":0},{"OBJECT_NAME":"ONEWEB-0506","OBJECT_ID":"2022-138M","EPOCH":"2025-09-19T23:09:00.944064","MEAN_MOTION":13.1972609,"ECCENTRICITY":0.00016157,"INCLINATION":87.929,"RA_OF_ASC_NODE":358.6811,"ARG_OF_PERICENTER":98.1404,"MEAN_ANOMALY":261.9912,"EPHEMERIS_TYPE":0,"CLASSIFICATION_TYPE":"U","NORAD_CAT_ID":54124,"ELEMENT_SET_NO":999,"REV_AT_EPOCH":14116,"BSTAR":0.00015224325,"MEAN_MOTION_DOT":7.4e-7,"MEAN_MOTION_DDOT":0},{"OBJECT_NAME":"ONEWEB-0507","OBJECT_ID":"2022-138N","EPOCH":"2025-09-20T01:27:45.601344","MEAN_MOTION":13.19725836,"ECCENTRICITY":0.00016098,"INCLINATION":87.928,"RA_OF_ASC_NODE":358.7111,"ARG_OF_PERICENTER":101.5986,"MEAN_ANOMALY":258.5328,"EPHEMERIS_TYPE":0,"CLASSIFICATION_TYPE":"U","NORAD_CAT_ID":54125,"ELEMENT_SET_NO":999,"REV_AT_EPOCH":14122,"BSTAR":0.00014598303,"MEAN_MOTION_DOT":7.1e-7,"MEAN_MOTION_DDOT":0},{"OBJECT_NAME":"ONEWEB-0508","OBJECT_ID":"2022-138P","EPOCH":"2025-09-19T19:55:40.837728","MEAN_MOTION":13.19725306,"ECCENTRICITY":0.00014405,"INCLINATION":87.9284,"RA_OF_ASC_NODE":358.7423,"ARG_OF_PERICENTER":105.4164,"MEAN_ANOMALY":254.7128,"EPHEMERIS_TYPE":0,"CLASSIFICATION_TYPE":"U","NORAD_CAT_ID":54126,"ELEMENT_SET_NO":999,"REV_AT_EPOCH":14117,"BSTAR":9.109813e-5,"MEAN_MOTION_DOT":4.9e-7,"MEAN_MOTION_DDOT":0},{"OBJECT_NAME":"ONEWEB-0509","OBJECT_ID":"2022-138Q","EPOCH":"2025-09-20T00:46:50.394144","MEAN_MOTION":13.19725581,"ECCENTRICITY":0.00016373,"INCLINATION":87.929,"RA_OF_ASC_NODE":358.666,"ARG_OF_PERICENTER":98.5859,"MEAN_ANOMALY":261.5459,"EPHEMERIS_TYPE":0,"CLASSIFICATION_TYPE":"U","NORAD_CAT_ID":54127,"ELEMENT_SET_NO":999,"REV_AT_EPOCH":14117,"BSTAR":-6.117701e-6,"MEAN_MOTION_DOT":1.0e-7,"MEAN_MOTION_DDOT":0},{"OBJECT_NAME":"ONEWEB-0510","OBJECT_ID":"2022-138R","EPOCH":"2025-09-20T03:13:23.210688","MEAN_MOTION":13.20770827,"ECCENTRICITY":0.00024645,"INCLINATION":87.9263,"RA_OF_ASC_NODE":328.2825,"ARG_OF_PERICENTER":99.0307,"MEAN_ANOMALY":261.1105,"EPHEMERIS_TYPE":0,"CLASSIFICATION_TYPE":"U","NORAD_CAT_ID":54128,"ELEMENT_SET_NO":999,"REV_AT_EPOCH":14363,"BSTAR":0.00014939014,"MEAN_MOTION_DOT":7.4e-7,"MEAN_MOTION_DDOT":0},{"OBJECT_NAME":"ONEWEB-0511","OBJECT_ID":"2022-138S","EPOCH":"2025-09-20T00:42:16.407648","MEAN_MOTION":13.19726918,"ECCENTRICITY":0.00018294,"INCLINATION":87.929,"RA_OF_ASC_NODE":358.6713,"ARG_OF_PERICENTER":90.5134,"MEAN_ANOMALY":269.6209,"EPHEMERIS_TYPE":0,"CLASSIFICATION_TYPE":"U","NORAD_CAT_ID":54129,"ELEMENT_SET_NO":999,"REV_AT_EPOCH":14120,"BSTAR":6.5812089e-5,"MEAN_MOTION_DOT":3.9e-7,"MEAN_MOTION_DDOT":0},{"OBJECT_NAME":"ONEWEB-0512","OBJECT_ID":"2022-138T","EPOCH":"2025-09-20T00:30:54.886176","MEAN_MOTION":13.19725526,"ECCENTRICITY":0.00013869,"INCLINATION":87.9274,"RA_OF_ASC_NODE":358.711,"ARG_OF_PERICENTER":94.1358,"MEAN_ANOMALY":265.9933,"EPHEMERIS_TYPE":0,"CLASSIFICATION_TYPE":"U","NORAD_CAT_ID":54130,"ELEMENT_SET_NO":999,"REV_AT_EPOCH":14117,"BSTAR":8.0298775e-5,"MEAN_MOTION_DOT":4.5e-7,"MEAN_MOTION_DDOT":0},{"OBJECT_NAME":"ONEWEB-0513","OBJECT_ID":"2022-138U","EPOCH":"2025-09-19T18:16:19.778592","MEAN_MOTION":13.20331535,"ECCENTRICITY":0.0001229,"INCLINATION":87.9279,"RA_OF_ASC_NODE":358.7251,"ARG_OF_PERICENTER":80.43,"MEAN_ANOMALY":279.6972,"EPHEMERIS_TYPE":0,"CLASSIFICATION_TYPE":"U","NORAD_CAT_ID":54131,"ELEMENT_SET_NO":999,"REV_AT_EPOCH":14103,"BSTAR":-0.0082792961,"MEAN_MOTION_DOT":-3.33e-5,"MEAN_MOTION_DDOT":0},{"OBJECT_NAME":"ONEWEB-0514","OBJECT_ID":"2022-138V","EPOCH":"2025-09-19T19:26:07.950336","MEAN_MOTION":13.19724655,"ECCENTRICITY":0.00019248,"INCLINATION":87.9292,"RA_OF_ASC_NODE":358.7278,"ARG_OF_PERICENTER":99.4561,"MEAN_ANOMALY":260.6789,"EPHEMERIS_TYPE":0,"CLASSIFICATION_TYPE":"U","NORAD_CAT_ID":54132,"ELEMENT_SET_NO":999,"REV_AT_EPOCH":14116,"BSTAR":-1.9872976e-5,"MEAN_MOTION_DOT":5.0e-8,"MEAN_MOTION_DDOT":0},{"OBJECT_NAME":"ONEWEB-0515","OBJECT_ID":"2022-138W","EPOCH":"2025-09-20T02:55:11.308224","MEAN_MOTION":13.20772147,"ECCENTRICITY":0.00025585,"INCLINATION":87.9272,"RA_OF_ASC_NODE":328.2644,"ARG_OF_PERICENTER":114.9642,"MEAN_ANOMALY":245.1757,"EPHEMERIS_TYPE":0,"CLASSIFICATION_TYPE":"U","NORAD_CAT_ID":54133,"ELEMENT_SET_NO":999,"REV_AT_EPOCH":14365,"BSTAR":0.00030234176,"MEAN_MOTION_DOT":1.36e-6,"MEAN_MOTION_DDOT":0},{"OBJECT_NAME":"ONEWEB-0516","OBJECT_ID":"2022-138X","EPOCH":"2025-09-20T00:17:15.713088","MEAN_MOTION":13.19724071,"ECCENTRICITY":0.00016918,"INCLINATION":87.9276,"RA_OF_ASC_NODE":358.7178,"ARG_OF_PERICENTER":103.5787,"MEAN_ANOMALY":256.5534,"EPHEMERIS_TYPE":0,"CLASSIFICATION_TYPE":"U","NORAD_CAT_ID":54134,"ELEMENT_SET_NO":999,"REV_AT_EPOCH":14119,"BSTAR":2.5552038e-5,"MEAN_MOTION_DOT":2.3e-7,"MEAN_MOTION_DDOT":0}]
